ONEWEB-0056             
1 45159U 20008AE  25167.54031143 -.00000074  00000+0 -24925-3 0  9993
2 45159  87.8819 109.1763 0001990  78.7865 281.3486 13.10371399260292
ONEWEB-0057             
1 45160U 20008AF  25167.31867120 -.00000485  00000+0 -14252-2 0  9999
2 45160  87.8823 109.2334 0001881  77.0476 283.0861 13.10370555260922
ONEWEB-0058             
1 45161U 20008AG  25167.53461493  .00000267  00000+0  72889-3 0  9994
2 45161  87.8816 109.2034 0002046  83.6846 276.4515 13.10370165261289
ONEWEB-0059             
1 45162U 20008AH  25167.53115957  .00000452  00000+0  12585-2 0  9998
2 45162  87.8821 109.2010 0002089  83.1062 277.0303 13.10369993261179
ONEWEB-0062             
1 45163U 20008AJ  25167.55686745 -.00000553  00000+0 -16212-2 0  9994
2 45163  87.8824 109.1761 0002383  81.4251 278.7147 13.10373011260307
ONEWEB-0065             
1 45164U 20008AK  25167.53611445  .00000175  00000+0  46581-3 0  9999
2 45164  87.8825 109.2028 0001902  70.0681 290.0651 13.10371578259999
ONEWEB-0066             
1 45424U 20020A   25167.53256004 -.00000239  00000+0 -71157-3 0  9998
2 45424  87.8843  93.9448 0001722  87.2464 272.8861 13.11418648254764
ONEWEB-0067             
1 45425U 20020B   25167.49370996  .00000089  00000+0  21634-3 0  9997
2 45425  87.8828  93.8690 0001797  80.3239 279.8092 13.11414670254801
